STARLINK-5979           
1 56345U 23058AE  24248.01945600  .00001569  00000+0  12668-3 0  9992
2 56345  97.6565 247.7647 0001990  92.4097 267.7355 15.01261264 74879
STARLINK-5837           
1 56346U 23058AF  24247.88985604  .00001506  00000+0  12180-3 0  9995
2 56346  97.6570 247.6253 0001768  91.7359 268.4068 15.01258928 75349
STARLINK-5829           
1 56347U 23058AG  24247.88429605  .00002026  00000+0  16226-3 0  9993
2 56347  97.6562 247.6365 0002092  92.4991 267.6472 15.01265336 75347
STARLINK-5888           
1 56348U 23058AH  24247.95858497  .00003389  00000+0  26823-3 0  9994
2 56348  97.6574 247.6864 0001594  90.5000 269.6407 15.01276555 74862
STARLINK-5887           
1 56349U 23058AJ  24247.87874430  .00000190  00000+0  19358-4 0  9994
2 56349  97.6556 247.6457 0003347  90.7243 269.4365 15.01266819 75347
STARLINK-5886           
1 56350U 23058AK  24247.88060281 -.00000014  00000+0  34815-5 0  9990
2 56350  97.6550 247.6435 0003132  96.7727 263.3854 15.01252364 75340
STARLINK-5891           
1 56351U 23058AL  24247.87689424  .00001283  00000+0  10445-3 0  9995
2 56351  97.6553 247.6482 0003449  86.1640 273.9978 15.01260683 75341
STARLINK-5885           
1 56352U 23058AM  24247.88244799  .00001437  00000+0  11645-3 0  9993
2 56352  97.6559 247.6397 0002572  91.4195 268.7324 15.01261715 75347
STARLINK-5874           
1 56353U 23058AN  24247.73063081 -.00000358  00000+0 -23299-4 0  9993
2 56353  97.6540 247.5315 0003823  72.3803 287.7839 15.01260816 75322
STARLINK-5877           
1 56354U 23058AP  24248.01782403  .00004214  00000+0  33228-3 0  9997
2 56354  97.6565 247.7679 0002061  91.0016 269.1444 15.01283867 74878
STARLINK-5533           
1 56355U 23058AQ  24248.00464722  .00000469  00000+0  41124-4 0  9991
2 56355  97.6542 247.7864 0004082  80.7820 279.3865 15.01260427 74870
STARLINK-5535           
1 56356U 23058AR  24247.87319421  .00001509  00000+0  12202-3 0  9991
2 56356  97.6545 247.6531 0003956  83.6390 276.5285 15.01258499 75341
STARLINK-5538           
1 56357U 23058AS  24247.87157952 -.00004457  00000+0 -34236-3 0  9999
2 56357  97.6544 247.6546 0004154  73.5922 286.5759 15.01281386 75345
STARLINK-5482           
1 56358U 23058AT  24247.94169381  .00001715  00000+0  13811-3 0  9995
2 56358  97.6546 247.7168 0002921  88.8853 271.2706 15.01262024 75353
STARLINK-5551           
1 56359U 23058AU  24247.53647735  .00002109  00000+0  16873-3 0  9994
2 56359  97.6545 247.3288 0004404  74.0165 286.1544 15.01255395 75294
STARLINK-5549           
1 56360U 23058AV  24248.00279820  .00000728  00000+0  61278-4 0  9990
2 56360  97.6542 247.7889 0004717  78.2558 281.9195 15.01256511 74872
STARLINK-5550           
1 56361U 23058AW  24247.60104416  .00012497  00000+0  97513-3 0  9990
2 56361  97.6526 247.3973 0005017  78.0248 282.1539 15.01279979 75300
STARLINK-5972           
1 56362U 23058AX  24247.99909223 -.00000486  00000+0 -33201-4 0  9994
2 56362  97.6543 247.7926 0005449  66.3556 293.8240 15.01265892 74871
STARLINK-6156           
1 56374U 23061A   24247.60075106  .00005896  00000+0  45125-3 0  9998
2 56374  43.0048 317.5847 0001501 264.2453  95.8218 15.02528688 74025
STARLINK-6158           
1 56375U 23061B   24248.19349626  .00002214  00000+0  17891-3 0  9995
2 56375  43.0027 314.2923 0000904 273.8367  86.2372 15.02543280 74084
STARLINK-6188           
1 56376U 23061C   24248.19670106  .00010207  00000+0  76750-3 0  9996
2 56376  43.0011 314.3115 0000451 292.9395  67.1400 15.02636600 74081
STARLINK-6189           
1 56377U 23061D   24247.19300126  .00003024  00000+0  23884-3 0  9997
2 56377  43.0049 319.6841 0001223 287.2794  72.7915 15.02536565 73648
STARLINK-6191           
1 56378U 23061E   24247.58187753  .00004389  00000+0  33971-3 0  9993
2 56378  43.0034 317.4385 0001119 279.0378  81.0338 15.02543554 73999
STARLINK-6157           
1 56379U 23061F   24248.17906786  .00002691  00000+0  21422-3 0  9997
2 56379  43.0044 314.1816 0001616 280.4523  79.6137 15.02537777 74085
STARLINK-6161           
1 56380U 23061G   24248.18239709  .00004478  00000+0  34620-3 0  9993
2 56380  42.9969 314.2024 0000970 274.5676  85.5056 15.02547738 74082
STARLINK-6159           
1 56381U 23061H   24248.18572455  .00001351  00000+0  11500-3 0  9991
2 56381  42.9930 314.2225 0000828 266.9752  93.0995 15.02539037 74085
STARLINK-6160           
1 56382U 23061J   24247.50873954  .00005634  00000+0  43170-3 0  9991
2 56382  43.0018 317.7484 0001251 290.9938  69.0771 15.02543022 73694
STARLINK-6166           
1 56383U 23061K   24248.17573612  .00002743  00000+0  21804-3 0  9992
2 56383  43.0048 314.1512 0001362 272.3093  87.7593 15.02540090 74085
STARLINK-6153           
1 56384U 23061L   24247.50096929 -.00001663  00000+0 -10802-3 0  9998
2 56384  43.0037 317.6890 0001647 264.6761  95.3894 15.02540321 73695
STARLINK-6173           
1 56385U 23061M   24248.17019120  .00000397  00000+0  44497-4 0  9990
2 56385  43.0028 314.1123 0002410 285.3798  74.6778 15.02536579 74081
STARLINK-5836           
1 56386U 23061N   24247.56078980  .00002966  00000+0  23459-3 0  9990
2 56386  43.0054 317.2778 0001495 265.6206  94.4466 15.02529709 73707
STARLINK-6178           
1 56387U 23061P   24247.50207615  .00004134  00000+0  32086-3 0  9999
2 56387  43.0019 317.6987 0000955 265.3625  94.7108 15.02542184 73693
STARLINK-6176           
1 56388U 23061Q   24248.21669283  .00008237  00000+0  62425-3 0  9990
2 56388  43.0018 313.5975 0001403 268.7502  91.3179 15.02527776 74091
STARLINK-6145           
1 56389U 23061R   24247.56412233  .00002108  00000+0  17114-3 0  9995
2 56389  43.0042 317.3029 0001203 261.4955  98.5751 15.02527174 73705
STARLINK-6300           
1 56390U 23061S   24248.22261360  .00005394  00000+0  41395-3 0  9992
2 56390  43.0032 301.5111 0001383 272.0650  88.0034 15.02544809 74233
STARLINK-6298           
1 56391U 23061T   24248.22223588  .00000951  00000+0  85450-4 0  9998
2 56391  43.0030 313.6397 0001186 282.9781  77.0928 15.02541139 74095
STARLINK-6301           
1 56392U 23061U   24248.15836204  .00004869  00000+0  37533-3 0  9996
2 56392  43.0041 301.8886 0001254 264.0102  96.0597 15.02526401 74227
STARLINK-6303           
1 56393U 23061V   24247.55413064  .00001390  00000+0  11796-3 0  9994
2 56393  43.0057 317.2284 0001270 255.4307 104.6395 15.02531239 73706
STARLINK-6305           
1 56394U 23061W   24248.21373056  .00001708  00000+0  14151-3 0  9996
2 56394  43.0036 301.4453 0001683 269.9289  90.1361 15.02538277 74234
STARLINK-6273           
1 56395U 23061X   24248.15056565 -.00012788  00000+0 -93239-3 0  9999
2 56395  42.9990 301.8281 0000948 279.6749  80.3986 15.02572796 74224
STARLINK-6302           
1 56396U 23061Y   24248.20818421  .00001536  00000+0  12876-3 0  9998
2 56396  43.0033 301.4031 0001243 274.4733  85.5968 15.02537237 74238
STARLINK-6271           
1 56397U 23061Z   24248.21928483  .00001668  00000+0  13846-3 0  9994
2 56397  43.0031 301.4859 0000995 269.9495  90.1233 15.02541972 74230
STARLINK-6288           
1 56398U 23061AA  24248.13838448  .00011237  00000+0  84637-3 0  9996
2 56398  43.0041 301.7397 0001681 303.1153  56.9527 15.02502029 74222
STARLINK-6277           
1 56399U 23061AB  24247.47914940  .00002505  00000+0  20047-3 0  9998
2 56399  43.0041 305.3943 0000971 270.6495  89.4236 15.02535135 73836
STARLINK-6267           
1 56400U 23061AC  24248.19930504  .00005149  00000+0  39589-3 0  9993
2 56400  43.0006 301.3348 0001512 270.4822  89.5847 15.02543425 74234
STARLINK-6256           
1 56401U 23061AD  24247.40959915  .00003704  00000+0  28910-3 0  9995
2 56401  43.0019 292.7216 0001057 273.5806  86.4916 15.02535128 74263
STARLINK-6284           
1 56403U 23061AF  24247.53675066  .00004714  00000+0  36380-3 0  9995
2 56403  43.0033 304.9658 0001396 276.5521  83.5163 15.02536794 74138
STARLINK-6287           
1 56404U 23061AG  24247.45917027  .00002498  00000+0  19992-3 0  9990
2 56404  43.0033 305.2405 0001258 270.8617  89.2081 15.02537515 73833
STARLINK-6285           
1 56405U 23061AH  24248.12949687  .00004582  00000+0  35395-3 0  9994
2 56405  43.0042 301.6723 0001584 268.0831  91.9830 15.02545491 74224
STARLINK-6283           
1 56406U 23061AJ  24248.18154458  .00002658  00000+0  21174-3 0  9997
2 56406  43.0014 301.1967 0001343 247.7939 112.2761 15.02541877 74230
STARLINK-6282           
1 56407U 23061AK  24248.12616450  .00001907  00000+0  15619-3 0  9990
2 56407  43.0019 301.6448 0001099 268.2841  91.7875 15.02541798 74221
STARLINK-6289           
1 56408U 23061AL  24247.44252175  .00006574  00000+0  50129-3 0  9995
2 56408  43.0012 305.1083 0001320 262.8300  97.2392 15.02536452 73838
STARLINK-6241           
1 56409U 23061AM  24248.18709712  .00003231  00000+0  25420-3 0  9995
2 56409  43.0038 301.2406 0001087 270.7498  89.3219 15.02529824 74239
STARLINK-6281           
1 56410U 23061AN  24247.44141673  .00003093  00000+0  24397-3 0  9999
2 56410  43.0017 305.1038 0001287 262.6511  97.4185 15.02531141 73832
STARLINK-6279           
1 56411U 23061AP  24247.45361694  .00002326  00000+0  18719-3 0  9997
2 56411  43.0051 305.1998 0001120 268.5060  91.5654 15.02535923 73834
STARLINK-6278           
1 56412U 23061AQ  24248.16711584  .00001150  00000+0  10015-3 0  9999
2 56412  43.0012 301.0853 0001101 278.0342  82.0375 15.02540840 74239
STARLINK-6258           
1 56413U 23061AR  24247.51121771  .00002843  00000+0  22548-3 0  9995
2 56413  43.0042 304.7679 0001376 269.4903  90.5782 15.02535865 74136
STARLINK-5136           
1 56414U 23061AS  24248.16267470  .00002224  00000+0  17964-3 0  9994
2 56414  43.0019 301.0545 0001182 259.3940 100.6769 15.02543103 74230
STARLINK-6268           
1 56415U 23061AT  24247.43919301  .00003406  00000+0  26708-3 0  9990
2 56415  43.0023 305.0872 0001038 250.3236 109.7495 15.02536222 73837
